{"type":"FeatureCollection","bbox":[144.987903000495,-37.834324998948,145.028274999832,-37.8099369993726],"crs":{"type":"name","properties":{"name":"EPSG:4283"}},"features":[{"type":"Feature","geometry":{"type":"Point","coordinates":[145.000351000084,-37.8172179993486]},"properties":{"sportsplayed":"Athletics","numberfieldcourts":1,"postcode":3121,"objectid":9047},"id":"vic_sport_and_recreation_2015.fid--2c16d5dc_1806ee3f6e0_5cc8"},{"type":"Feature","geometry":{"type":"Point","coordinates":[145.000351000084,-37.8172179993486]},"properties":{"sportsplayed":"Australian Rules Football","numberfieldcourts":1,"postcode":3121,"objectid":9051},"id":"vic_sport_and_recreation_2015.fid--2c16d5dc_1806ee3f6e0_5cc9"},{"type":"Feature","geometry":{"type":"Point","coordinates":[145.020461999478,-37.8285759991585]},"properties":{"sportsplayed":"Australian Rules Football","numberfieldcourts":1,"postcode":3121,"objectid":9052},"id":"vic_sport_and_recreation_2015.fid--2c16d5dc_1806ee3f6e0_5cca"},{"type":"Feature","geometry":{"type":"Point","coordinates":[145.012699000534,-37.8296899994432]},"properties":{"sportsplayed":"Basketball","numberfieldcourts":2,"postcode":null,"objectid":9058},"id":"vic_sport_and_recreation_2015.fid--2c16d5dc_1806ee3f6e0_5ccb"},{"type":"Feature","geometry":{"type":"Point","coordinates":[145.00152499980098,-37.8183799991808]},"properties":{"sportsplayed":"Boxing","numberfieldcourts":null,"postcode":null,"objectid":9064},"id":"vic_sport_and_recreation_2015.fid--2c16d5dc_1806ee3f6e0_5ccc"},{"type":"Feature","geometry":{"type":"Point","coordinates":[145.002381000219,-37.8176879988823]},"properties":{"sportsplayed":"Canoe Polo","numberfieldcourts":null,"postcode":3121,"objectid":9066},"id":"vic_sport_and_recreation_2015.fid--2c16d5dc_1806ee3f6e0_5ccd"},{"type":"Feature","geometry":{"type":"Point","coordinates":[145.001134000209,-37.830217999443]},"properties":{"sportsplayed":"Cricket","numberfieldcourts":1,"postcode":3121,"objectid":9069},"id":"vic_sport_and_recreation_2015.fid--2c16d5dc_1806ee3f6e0_5cce"},{"type":"Feature","geometry":{"type":"Point","coordinates":[145.014145000422,-37.826102999182]},"properties":{"sportsplayed":"Cricket","numberfieldcourts":1,"postcode":3121,"objectid":9072},"id":"vic_sport_and_recreation_2015.fid--2c16d5dc_1806ee3f6e0_5ccf"},{"type":"Feature","geometry":{"type":"Point","coordinates":[145.019798000531,-37.8272299989764]},"properties":{"sportsplayed":"Fitness \/ Gymnasium Workouts","numberfieldcourts":1,"postcode":3121,"objectid":9111},"id":"vic_sport_and_recreation_2015.fid--2c16d5dc_1806ee3f6e0_5cd0"},{"type":"Feature","geometry":{"type":"Point","coordinates":[145.000351000084,-37.8172179993486]},"properties":{"sportsplayed":"Cricket","numberfieldcourts":1,"postcode":3121,"objectid":9073},"id":"vic_sport_and_recreation_2015.fid--2c16d5dc_1806ee3f6e0_5cd1"},{"type":"Feature","geometry":{"type":"Point","coordinates":[145.020461999478,-37.8285759991585]},"properties":{"sportsplayed":"Cricket","numberfieldcourts":1,"postcode":3121,"objectid":9077},"id":"vic_sport_and_recreation_2015.fid--2c16d5dc_1806ee3f6e0_5cd2"},{"type":"Feature","geometry":{"type":"Point","coordinates":[145.020461999478,-37.8285759991585]},"properties":{"sportsplayed":"Cricket","numberfieldcourts":1,"postcode":3121,"objectid":9078},"id":"vic_sport_and_recreation_2015.fid--2c16d5dc_1806ee3f6e0_5cd3"},{"type":"Feature","geometry":{"type":"Point","coordinates":[144.991239000113,-37.8174789988842]},"properties":{"sportsplayed":"Fitness \/ Gymnasium Workouts","numberfieldcourts":null,"postcode":3121,"objectid":9088},"id":"vic_sport_and_recreation_2015.fid--2c16d5dc_1806ee3f6e0_5cd4"},{"type":"Feature","geometry":{"type":"Point","coordinates":[144.99073600004,-37.8261149989673]},"properties":{"sportsplayed":"Fitness \/ Gymnasium Workouts","numberfieldcourts":null,"postcode":3121,"objectid":9089},"id":"vic_sport_and_recreation_2015.fid--2c16d5dc_1806ee3f6e0_5cd5"},{"type":"Feature","geometry":{"type":"Point","coordinates":[145.00381799994898,-37.8203979986448]},"properties":{"sportsplayed":"Fitness \/ Gymnasium Workouts","numberfieldcourts":null,"postcode":3121,"objectid":9091},"id":"vic_sport_and_recreation_2015.fid--2c16d5dc_1806ee3f6e0_5cd6"},{"type":"Feature","geometry":{"type":"Point","coordinates":[144.9981559995,-37.8249219994108]},"properties":{"sportsplayed":"Fitness \/ Gymnasium Workouts","numberfieldcourts":1,"postcode":3121,"objectid":9092},"id":"vic_sport_and_recreation_2015.fid--2c16d5dc_1806ee3f6e0_5cd7"},{"type":"Feature","geometry":{"type":"Point","coordinates":[145.007549000222,-37.8115109992377]},"properties":{"sportsplayed":"Fitness \/ Gymnasium Workouts","numberfieldcourts":null,"postcode":3121,"objectid":9093},"id":"vic_sport_and_recreation_2015.fid--2c16d5dc_1806ee3f6e0_5cd8"},{"type":"Feature","geometry":{"type":"Point","coordinates":[145.009579999452,-37.8181619991996]},"properties":{"sportsplayed":"Fitness \/ Gymnasium Workouts","numberfieldcourts":1,"postcode":3121,"objectid":9096},"id":"vic_sport_and_recreation_2015.fid--2c16d5dc_1806ee3f6e0_5cd9"},{"type":"Feature","geometry":{"type":"Point","coordinates":[144.996400000277,-37.8293699987491]},"properties":{"sportsplayed":"Fitness \/ Gymnasium Workouts","numberfieldcourts":1,"postcode":3121,"objectid":9103},"id":"vic_sport_and_recreation_2015.fid--2c16d5dc_1806ee3f6e0_5cda"},{"type":"Feature","geometry":{"type":"Point","coordinates":[145.002458000437,-37.8203349992102]},"properties":{"sportsplayed":"Fitness \/ Gymnasium Workouts","numberfieldcourts":null,"postcode":3121,"objectid":9104},"id":"vic_sport_and_recreation_2015.fid--2c16d5dc_1806ee3f6e0_5cdb"},{"type":"Feature","geometry":{"type":"Point","coordinates":[144.994547999861,-37.8099369993726]},"properties":{"sportsplayed":"Fitness \/ Gymnasium Workouts","numberfieldcourts":null,"postcode":3121,"objectid":9105},"id":"vic_sport_and_recreation_2015.fid--2c16d5dc_1806ee3f6e0_5cdc"},{"type":"Feature","geometry":{"type":"Point","coordinates":[144.988844000113,-37.8246289988723]},"properties":{"sportsplayed":"Fitness \/ Gymnasium Workouts","numberfieldcourts":1,"postcode":3121,"objectid":9108},"id":"vic_sport_and_recreation_2015.fid--2c16d5dc_1806ee3f6e0_5cdd"},{"type":"Feature","geometry":{"type":"Point","coordinates":[144.992692999856,-37.8237729993997]},"properties":{"sportsplayed":"Fitness \/ Gymnasium Workouts","numberfieldcourts":1,"postcode":3121,"objectid":9121},"id":"vic_sport_and_recreation_2015.fid--2c16d5dc_1806ee3f6e0_5cde"},{"type":"Feature","geometry":{"type":"Point","coordinates":[144.9914549995,-37.8175269991757]},"properties":{"sportsplayed":"Fitness \/ Gymnasium Workouts","numberfieldcourts":1,"postcode":3121,"objectid":9122},"id":"vic_sport_and_recreation_2015.fid--2c16d5dc_1806ee3f6e0_5cdf"},{"type":"Feature","geometry":{"type":"Point","coordinates":[144.996591000397,-37.834324998948]},"properties":{"sportsplayed":"Fitness \/ Gymnasium Workouts","numberfieldcourts":null,"postcode":3121,"objectid":9124},"id":"vic_sport_and_recreation_2015.fid--2c16d5dc_1806ee3f6e0_5ce0"},{"type":"Feature","geometry":{"type":"Point","coordinates":[145.00152499980098,-37.8183799991808]},"properties":{"sportsplayed":"Fitness \/ Gymnasium Workouts","numberfieldcourts":null,"postcode":null,"objectid":9125},"id":"vic_sport_and_recreation_2015.fid--2c16d5dc_1806ee3f6e0_5ce1"},{"type":"Feature","geometry":{"type":"Point","coordinates":[145.002381000219,-37.8176879988823]},"properties":{"sportsplayed":"Fitness \/ Gymnasium Workouts","numberfieldcourts":1,"postcode":3121,"objectid":9126},"id":"vic_sport_and_recreation_2015.fid--2c16d5dc_1806ee3f6e0_5ce2"},{"type":"Feature","geometry":{"type":"Point","coordinates":[145.000351000084,-37.8172179993486]},"properties":{"sportsplayed":"Fitness \/ Gymnasium Workouts","numberfieldcourts":1,"postcode":3121,"objectid":9127},"id":"vic_sport_and_recreation_2015.fid--2c16d5dc_1806ee3f6e0_5ce3"},{"type":"Feature","geometry":{"type":"Point","coordinates":[145.01239600020904,-37.8181599988249]},"properties":{"sportsplayed":"Fitness \/ Gymnasium Workouts","numberfieldcourts":null,"postcode":3121,"objectid":9129},"id":"vic_sport_and_recreation_2015.fid--2c16d5dc_1806ee3f6e0_5ce4"},{"type":"Feature","geometry":{"type":"Point","coordinates":[144.994547999861,-37.8099369993726]},"properties":{"sportsplayed":"Fitness \/ Gymnasium Workouts","numberfieldcourts":null,"postcode":3121,"objectid":9130},"id":"vic_sport_and_recreation_2015.fid--2c16d5dc_1806ee3f6e0_5ce5"},{"type":"Feature","geometry":{"type":"Point","coordinates":[145.00405000055298,-37.8192889988919]},"properties":{"sportsplayed":"Fitness \/ Gymnasium Workouts","numberfieldcourts":null,"postcode":3121,"objectid":9131},"id":"vic_sport_and_recreation_2015.fid--2c16d5dc_1806ee3f6e0_5ce6"},{"type":"Feature","geometry":{"type":"Point","coordinates":[144.996172000033,-37.8254889987352]},"properties":{"sportsplayed":"Fitness \/ Gymnasium Workouts","numberfieldcourts":null,"postcode":3121,"objectid":9135},"id":"vic_sport_and_recreation_2015.fid--2c16d5dc_1806ee3f6e0_5ce7"},{"type":"Feature","geometry":{"type":"Point","coordinates":[145.007592000437,-37.8192009991825]},"properties":{"sportsplayed":"Fitness \/ Gymnasium Workouts","numberfieldcourts":null,"postcode":3121,"objectid":9139},"id":"vic_sport_and_recreation_2015.fid--2c16d5dc_1806ee3f6e0_5ce8"},{"type":"Feature","geometry":{"type":"Point","coordinates":[145.020461999478,-37.8285759991585]},"properties":{"sportsplayed":"Golf","numberfieldcourts":1,"postcode":3121,"objectid":9141},"id":"vic_sport_and_recreation_2015.fid--2c16d5dc_1806ee3f6e0_5ce9"},{"type":"Feature","geometry":{"type":"Point","coordinates":[145.000351000084,-37.8172179993486]},"properties":{"sportsplayed":"Lawn Bowls","numberfieldcourts":2,"postcode":3121,"objectid":9146},"id":"vic_sport_and_recreation_2015.fid--2c16d5dc_1806ee3f6e0_5cea"},{"type":"Feature","geometry":{"type":"Point","coordinates":[144.994547999861,-37.8099369993726]},"properties":{"sportsplayed":"Martial Arts","numberfieldcourts":null,"postcode":3121,"objectid":9150},"id":"vic_sport_and_recreation_2015.fid--2c16d5dc_1806ee3f6e0_5ceb"},{"type":"Feature","geometry":{"type":"Point","coordinates":[144.988844000113,-37.8246289988723]},"properties":{"sportsplayed":"Martial Arts","numberfieldcourts":null,"postcode":3121,"objectid":9154},"id":"vic_sport_and_recreation_2015.fid--2c16d5dc_1806ee3f6e0_5cec"},{"type":"Feature","geometry":{"type":"Point","coordinates":[145.012699000534,-37.8296899994432]},"properties":{"sportsplayed":"Netball","numberfieldcourts":3,"postcode":null,"objectid":9157},"id":"vic_sport_and_recreation_2015.fid--2c16d5dc_1806ee3f6e0_5ced"},{"type":"Feature","geometry":{"type":"Point","coordinates":[145.000351000084,-37.8172179993486]},"properties":{"sportsplayed":"Netball","numberfieldcourts":2,"postcode":3121,"objectid":9158},"id":"vic_sport_and_recreation_2015.fid--2c16d5dc_1806ee3f6e0_5cee"},{"type":"Feature","geometry":{"type":"Point","coordinates":[145.009956000176,-37.8273099986845]},"properties":{"sportsplayed":"Netball","numberfieldcourts":4,"postcode":3121,"objectid":9159},"id":"vic_sport_and_recreation_2015.fid--2c16d5dc_1806ee3f6e0_5cef"},{"type":"Feature","geometry":{"type":"Point","coordinates":[145.001134000209,-37.830217999443]},"properties":{"sportsplayed":"Soccer","numberfieldcourts":1,"postcode":3121,"objectid":9162},"id":"vic_sport_and_recreation_2015.fid--2c16d5dc_1806ee3f6e0_5cf0"},{"type":"Feature","geometry":{"type":"Point","coordinates":[145.020461999478,-37.8285759991585]},"properties":{"sportsplayed":"Soccer","numberfieldcourts":2,"postcode":3121,"objectid":9165},"id":"vic_sport_and_recreation_2015.fid--2c16d5dc_1806ee3f6e0_5cf1"},{"type":"Feature","geometry":{"type":"Point","coordinates":[145.014145000422,-37.826102999182]},"properties":{"sportsplayed":"Soccer","numberfieldcourts":1,"postcode":3121,"objectid":9166},"id":"vic_sport_and_recreation_2015.fid--2c16d5dc_1806ee3f6e0_5cf2"},{"type":"Feature","geometry":{"type":"Point","coordinates":[145.020461999478,-37.8285759991585]},"properties":{"sportsplayed":"Soccer","numberfieldcourts":1,"postcode":3121,"objectid":9170},"id":"vic_sport_and_recreation_2015.fid--2c16d5dc_1806ee3f6e0_5cf3"},{"type":"Feature","geometry":{"type":"Point","coordinates":[145.000351000084,-37.8172179993486]},"properties":{"sportsplayed":"Swimming","numberfieldcourts":3,"postcode":3121,"objectid":9181},"id":"vic_sport_and_recreation_2015.fid--2c16d5dc_1806ee3f6e0_5cf4"},{"type":"Feature","geometry":{"type":"Point","coordinates":[145.002381000219,-37.8176879988823]},"properties":{"sportsplayed":"Swimming","numberfieldcourts":2,"postcode":3121,"objectid":9182},"id":"vic_sport_and_recreation_2015.fid--2c16d5dc_1806ee3f6e0_5cf5"},{"type":"Feature","geometry":{"type":"Point","coordinates":[144.990381999439,-37.8184729988649]},"properties":{"sportsplayed":"Tennis (Indoor)","numberfieldcourts":null,"postcode":3121,"objectid":9183},"id":"vic_sport_and_recreation_2015.fid--2c16d5dc_1806ee3f6e0_5cf6"},{"type":"Feature","geometry":{"type":"Point","coordinates":[145.000351000084,-37.8172179993486]},"properties":{"sportsplayed":"Tennis (Outdoor)","numberfieldcourts":2,"postcode":3121,"objectid":9186},"id":"vic_sport_and_recreation_2015.fid--2c16d5dc_1806ee3f6e0_5cf7"},{"type":"Feature","geometry":{"type":"Point","coordinates":[145.009956000176,-37.8273099986845]},"properties":{"sportsplayed":"Tennis (Outdoor)","numberfieldcourts":4,"postcode":3121,"objectid":9187},"id":"vic_sport_and_recreation_2015.fid--2c16d5dc_1806ee3f6e0_5cf8"},{"type":"Feature","geometry":{"type":"Point","coordinates":[145.002381000219,-37.8176879988823]},"properties":{"sportsplayed":"Underwater Hockey","numberfieldcourts":1,"postcode":3121,"objectid":9188},"id":"vic_sport_and_recreation_2015.fid--2c16d5dc_1806ee3f6e0_5cf9"},{"type":"Feature","geometry":{"type":"Point","coordinates":[145.021293000114,-37.8202539995222]},"properties":{"sportsplayed":"Australian Rules Football","numberfieldcourts":1,"postcode":3122,"objectid":1216},"id":"vic_sport_and_recreation_2015.fid--2c16d5dc_1806ee3f6e0_5cfa"},{"type":"Feature","geometry":{"type":"Point","coordinates":[145.028274999832,-37.8300149987833]},"properties":{"sportsplayed":"Cricket","numberfieldcourts":2,"postcode":3122,"objectid":1244},"id":"vic_sport_and_recreation_2015.fid--2c16d5dc_1806ee3f6e0_5cfb"},{"type":"Feature","geometry":{"type":"Point","coordinates":[145.021293000114,-37.8202539995222]},"properties":{"sportsplayed":"Cricket","numberfieldcourts":1,"postcode":3122,"objectid":1264},"id":"vic_sport_and_recreation_2015.fid--2c16d5dc_1806ee3f6e0_5cfc"},{"type":"Feature","geometry":{"type":"Point","coordinates":[145.019058999739,-37.8194389988017]},"properties":{"sportsplayed":"Lawn Bowls","numberfieldcourts":2,"postcode":3122,"objectid":1314},"id":"vic_sport_and_recreation_2015.fid--2c16d5dc_1806ee3f6e0_5cfd"},{"type":"Feature","geometry":{"type":"Point","coordinates":[145.005506999853,-37.832902999281]},"properties":{"sportsplayed":"Soccer","numberfieldcourts":1,"postcode":3141,"objectid":7804},"id":"vic_sport_and_recreation_2015.fid--2c16d5dc_1806ee3f6e0_5cfe"},{"type":"Feature","geometry":{"type":"Point","coordinates":[144.987903000495,-37.8223039987138]},"properties":{"sportsplayed":"Australian Rules Football","numberfieldcourts":1,"postcode":null,"objectid":5500},"id":"vic_sport_and_recreation_2015.fid--2c16d5dc_1806ee3f6e0_5cff"},{"type":"Feature","geometry":{"type":"Point","coordinates":[144.987903000495,-37.8223039987138]},"properties":{"sportsplayed":"Cricket","numberfieldcourts":1,"postcode":null,"objectid":5521},"id":"vic_sport_and_recreation_2015.fid--2c16d5dc_1806ee3f6e0_5d00"},{"type":"Feature","geometry":{"type":"Point","coordinates":[144.987903000495,-37.8223039987138]},"properties":{"sportsplayed":"Swimming","numberfieldcourts":1,"postcode":null,"objectid":5603},"id":"vic_sport_and_recreation_2015.fid--2c16d5dc_1806ee3f6e0_5d01"}]}